Org Name,Org Code,Org Type,Title I Status,Function,Contact Name,Address 1,Address 2,Town,State,Zip,Phone,Fax
Abby Kelley Foster Charter Public (District),04450000,Charter District,Title I District,Charter School Leader,Heidi Paluk,10 New Bond Street,,Worcester,MA,01606,508-854-8400,508-854-8484
Abington,00010000,Public School District,Title I District,Superintendent,Peter Schafer,1071 Washington St.,,Abington,MA,02351,781-982-2150,781-982-2157
Academy Of the Pacific Rim Charter Public (District),04120000,Charter District,Title I District,Charter School Leader,Spencer Blasdale,1 Westinghouse Plaza Bldg B,,Hyde Park,MA,02136,617-361-0050,617-361-0045
Acton (non-op),00020000,Public School District,Non-Title I District,Superintendent,Peter Light,16 Charter Road,,Acton,MA,01720,978-264-4700,978-264-3340
Acton-Boxborough,06000000,Public School District,Title I District,Superintendent,Peter Light,15 Charter Rd,,Acton,MA,01720,978-264-4700,978-264-3340
Acushnet,00030000,Public School District,Title I District,Superintendent,Paula Bailey,708 Middle Road,Suite 1,Acushnet,MA,02743,508-998-0260,508-998-0262
Adams (non-op),00040000,Public School District,Non-Title I District,Superintendent,Kristen Gordon,191 Church Street,,Cheshire,MA,01225,413-743-2939,413-743-4135
Advanced Math and Science Academy Charter (District),04300000,Charter District,Title I District,Charter School Leader,Ellen Linzey,201 Forest Street,,Marlborough,MA,01752,508-597-2400,508-597-2499
Agawam,00050000,Public School District,Title I District,Superintendent,sheila Hoffman,1305 Springfield St,Suite 1,Feeding Hills,MA,01030,413-821-0548,413-789-1835
Alford (non-op),00060000,Public School District,Non-Title I District,Superintendent,Beth Regulbuto,PO Box 339,,Sheffield,MA,01257,413-229-8778,413-229-2913
Alma del Mar Charter School (District),04090000,Charter District,Title I District,Charter School Leader,Will Gardner,515 Belleville Ave,,New Bedford,MA,02746,508-542-7153,774-762-4680
Amesbury,00070000,Public School District,Title I District,Superintendent,Jared Fulgoni,5 Highland Street,,Amesbury,MA,01913,978-388-0507,978-388-8315
Amherst,00080000,Public School District,Title I District,Superintendent,Michael Morris,170 Chestnut Street,,Amherst,MA,01002,413-362-1810,413-549-6108
Amherst-Pelham,06050000,Public School District,Title I District,Superintendent,Michael Morris,170 Chestnut Street,,Amherst,MA,01002,413-362-1810,413-549-6108
Andover,00090000,Public School District,Title I District,Superintendent,Sheldon Berman,36 Bartlet Street,,Andover,MA,01810,978-623-8501,978-623-8505
Aquinnah (non-op),01040000,Public School District,Non-Title I District,Superintendent,Matthew D'Andrea,4 Pine Street,,Vineyard Haven,MA,02568,508-693-2007,508-693-3190
Argosy Collegiate Charter School (District),35090000,Charter District,Title I District,Charter School Leader,Kristen Pavao,263 Hamlet Street,,Fall River,MA,02724,508-567-4725,774-365-4383
Arlington,00100000,Public School District,Title I District,Superintendent,Kathleen Bodie,869 Massachusetts Avenue,,Arlington,MA,02476,781-316-3523,781-316-3509
Ashburnham (non-op),00110000,Public School District,Non-Title I District,Superintendent,Sandra Rehler,11 Oakmont Drive,,Ashburnham,MA,01430,978-827-1434,978-827-5969
Ashburnham-Westminster,06100000,Public School District,Title I District,Superintendent,Todd Stewart,11 Oakmont Drive,,Ashburnham,MA,01430,978-827-1434,978-827-5969
Ashby (non-op),00120000,Public School District,Non-Title I District,Superintendent,Brad Morgan,23 Main Street,,Townsend,MA,01469,978-597-8713,978-597-6534
Ashfield (non-op),00130000,Public School District,Non-Title I District,Superintendent,Michael Buoniconti,24 Ashfield Road,,Shelburne Falls,MA,01370,413-625-0192,413-625-0196
Ashland,00140000,Public School District,Title I District,Superintendent,James Adams,87 West Union Street,,Ashland,MA,01721,508-881-0150,508-881-0161
Assabet Valley Regional Vocational Technical,08010000,Public School District,Title I District,Superintendent,Ernest Houle,215 Fitchburg Street,,Marlborough,MA,01752,508-485-9430,508-460-3472
Athol (non-op),00150000,Public School District,Non-Title I District,Superintendent,Darcy Fernandes,P.O.Box 968,,Athol,MA,01331,978-249-2400,978-249-2402
Athol-Royalston,06150000,Public School District,Title I District,Superintendent,Darcy Fernandes,1062 Pleasant Street,,Athol,MA,01331,978-249-2400,978-249-2402
Atlantis Charter (District),04910000,Charter District,Title I District,Charter School Leader,Robert Beatty,991 Jefferson St,,Fall River,MA,02721,508-646-6410,508-672-3489
Attleboro,00160000,Public School District,Title I District,Superintendent,David Sawyer,100 Rathbun Willard Drive,,Attleboro,MA,02703,508-222-0012,508-223-1577
Auburn,00170000,Public School District,Title I District,Superintendent,Casey Handfield,5 West Street,,Auburn,MA,01501,508-832-7755,508-832-7757
Avon,00180000,Public School District,Title I District,Superintendent,Christine Godino,1 Patrick Clark Drive,,Avon,MA,02322,508-588-0230,508-559-1081
Ayer (non-op),00190000,Public School District,Non-Title I District,Superintendent,Mary Malone,141 Washington Street,,Ayer,MA,01432,978-772-8600,978-772-7444
Ayer Shirley School District,06160000,Public School District,Title I District,Superintendent,Mary Malone,115 Washington Street,,Ayer,MA,01432,978-772-8600,978-772-1863
Barnstable,00200000,Public School District,Title I District,Superintendent,Meg Mayo-Brown,P O Box 955,,Hyannis,MA,02601,508-862-4953,508-790-6454
Barre (non-op),00210000,Public School District,Non-Title I District,Superintendent,Sheila Muir,872 South Street,,Barre,MA,01005,978-355-4668,978-355-6756
Baystate Academy Charter Public School (District),35020000,Charter District,Title I District,Charter School Leader,Timothy Sneed,2001 Roosevelt Avenue,,Springfield,MA,01104,413-366-5103,413-366-5101
Becket (non-op),00220000,Public School District,Non-Title I District,Superintendent,Laurie Casna,PO Box 299,,Dalton,MA,01227,413-684-0320,413-684-4088
Bedford,00230000,Public School District,Title I District,Superintendent,Philip Conrad,97 McMahon Road,,Bedford,MA,01730,781-275-7588,781-275-0885
Belchertown,00240000,Public School District,Title I District,Superintendent,Brian Cameron,PO Box 841,,Belchertown,MA,01007,413-323-0423,413-323-0448
Bellingham,00250000,Public School District,Title I District,Superintendent,Peter Marano,4 Mechanic Street,,Bellingham,MA,02019,508-883-1706,508-966-2402
Belmont,00260000,Public School District,Title I District,Superintendent,John Phelan,644 Pleasant Street,,Belmont,MA,02478,617-993-5401,617-993-5409
Benjamin Banneker Charter Public (District),04200000,Charter District,Title I District,Charter School Leader,Sherley Bretous-Carre,21 Notre Dame Avenue,,Cambridge,MA,02140,617-497-7771,617-497-4223
Benjamin Franklin Classical Charter Public (District),04470000,Charter District,Title I District,Charter School Leader,Heather Zolnowski,500 Financial Park,,Franklin,MA,02038,508-541-3434,508-541-5396
Bentley Academy Charter School (District),35110000,Charter District,Title I District,Charter School Leader,Sean McCarthy,25 Memorial Drive,,Salem,MA,01970,978-740-1260,978-740-1164
Berkley,00270000,Public School District,Title I District,Superintendent,Thomas Lynch,21 North Main Street,,Berkley,MA,02779,508-822-5220,508-823-1772
Berkshire Arts and Technology Charter Public (District),04140000,Charter District,Title I District,Charter School Leader,James White,1 Commercial Pl,PO Box 267,Adams,MA,01220,413-743-7311,413-743-7327
Berkshire Hills,06180000,Public School District,Title I District,Superintendent,Peter Dillon,50 Main Street,PO Box 617,Stockbridge,MA,01262,413-298-4017,413-298-4672
Berlin (non-op),00280000,Public School District,Non-Title I District,Superintendent,Jeffrey Zanghi,215 Main Street,,Boylston,MA,01505,508-869-2837,508-869-0023
Berlin-Boylston,06200000,Public School District,Title I District,Superintendent,Jeffrey Zanghi,215 Main Street,,Boylston,MA,01505,508-869-2837,508-869-0023
Bernardston (non-op),00290000,Public School District,Non-Title I District,Superintendent,Jonathan Scagel,97 F Sumner Turner Rd,,Northfield,MA,01360,413-498-2911,413-498-0045
Beverly,00300000,Public School District,Title I District,Superintendent,Suzanne Charochak,70 Balch St.,,Beverly,MA,01915,978-921-6100,978-922-6597
Billerica,00310000,Public School District,Title I District,Superintendent,Timothy Piwowar,365 Boston Rd,,Billerica,MA,01821,978-528-7900,978-436-9595
Blackstone (non-op),00320000,Public School District,Non-Title I District,Superintendent,Jason Defalco,175 Lincoln Street,,Blackstone,MA,01504,508-883-4400,508-883-9892
Blackstone Valley Regional Vocational Technical,08050000,Public School District,Title I District,Superintendent,Michael Fitzpatrick,65 Pleasant Street,,Upton,MA,01568,508-529-7758,508-529-3079
Blackstone-Millville,06220000,Public School District,Title I District,Superintendent,Jason Defalco,175 Lincoln Street,,Blackstone,MA,01504,508-883-4400,508-883-9892
Blandford (non-op),00330000,Public School District,Non-Title I District,Superintendent,David Hopson,12 Littleville Road,,Huntington,MA,01050,413-685-1011,413-667-8739
Blue Hills Regional Vocational Technical,08060000,Public School District,Title I District,Superintendent,Jill Rossetti,800 Randolph Street,,Canton,MA,02021,781-828-5800,781-828-3872
Bolton (non-op),00340000,Public School District,Non-Title I District,Superintendent,Brooke Clenchy,50 Mechanic Street,,Bolton,MA,01740,978-779-0539,978-779-6812
Boston,00350000,Public School District,Title I District,Superintendent,Brenda Cassellius,2300 Washington Street,,Roxbury,MA,02119,617-635-9050,617-635-9059
Boston Collegiate Charter (District),04490000,Charter District,Title I District,Charter School Leader,Shannah Varon,11 Mayhew Street,,Dorchester,MA,02125,617-265-1172,617-265-1176
Boston Day and Evening Academy Charter (District),04240000,Charter District,Title I District,Charter School Leader,Alison Hramiec,20 Kearsarge Ave,,Roxbury,MA,02119,617-635-6789,617-635-6380
Boston Green Academy Horace Mann Charter School (District),04110000,Charter District,Title I District,Charter School Leader,Matthew Holzer,20 Warren St.,,Brighton,MA,02135,617-635-9860,617-635-9858
Boston Preparatory Charter Public (District),04160000,Charter District,Title I District,Charter School Leader,Sharon Liszanckie,885 River Street,,Hyde Park,MA,02136,617-333-6688,617-333-6689
Boston Renaissance Charter Public (District),04810000,Charter District,Title I District,Charter School Leader,Alexandra Banhares-Buckmire,1415 Hyde Park Ave,,Hyde Park,MA,02136,617-357-0900,617-357-0949
Bourne,00360000,Public School District,Title I District,Superintendent,Kerri Quinlan-Zhou,36 Sandwich Rd,,Bourne,MA,02532,508-759-0660,508-759-1107
Boxborough (non-op),00370000,Public School District,Non-Title I District,Superintendent,Peter Light,493 Massachusetts Avenue,,Boxborough,MA,01719,978-263-4569,978-263-0477
Boxford,00380000,Public School District,Title I District,Superintendent,Scott Morrison,28 Middleton Road,,Boxford,MA,01921,978-887-0771,978-887-8042
Boylston (non-op),00390000,Public School District,Non-Title I District,Superintendent,Jeffrey Zanghi,215 Main Street,,Boylston,MA,01505,508-869-2837,508-869-0023
Braintree,00400000,Public School District,Title I District,Superintendent,Frank Hackett,348 Pond Street,,Braintree,MA,02184,781-380-0130,781-380-0146
Brewster,00410000,Public School District,Title I District,Superintendent,Thomas Conrad,78 Eldredge Pkwy,,Orleans,MA,02653,508-255-8800,508-240-2351
Bridge Boston Charter School (District),04170000,Charter District,Title I District,Charter School Leader,Craig Martin,435 Warren St.,,Roxbury,MA,02119,857-229-1601,--
Bridgewater (non-op),00420000,Public School District,Non-Title I District,Superintendent,Derek Swenson,166 Mt. Prospect Street,,Bridgewater,MA,02324,508-279-2140,508-697-7012
Bridgewater-Raynham,06250000,Public School District,Title I District,Superintendent,Derek Swenson,166 Mt. Prospect Street,,Bridgewater,MA,02324,508-279-2140,508-697-7012
Brimfield,00430000,Public School District,Title I District,Superintendent,Erin Nosek,320A Brookfield Rd,,Fiskdale,MA,01518,508-347-3077,508-347-2697
Bristol County Agricultural,09100000,Public School District,Title I District,Superintendent,Adele Sands,135 Center Street,,Dighton,MA,02715,508-669-6744,508-669-6747
Bristol-Plymouth Regional Vocational Technical,08100000,Public School District,Title I District,Superintendent,Alexandre Magalhaes,207 Hart Street,,Taunton,MA,02780,508-823-5151,508-880-7287
Brockton,00440000,Public School District,Title I District,Superintendent,Michael Thomas,43 Crescent Street,,Brockton,MA,02301,508-580-7000,508-580-7513
Brooke Charter School (District),04280000,Charter District,Title I District,Charter School Leader,Jon Clark,190 Cummins Highway,,Roslindale,MA,02131,617-325-7977,617-325-2260
Brookfield,00450000,Public School District,Title I District,Superintendent,Erin Nosek,320 Brookfield Rd,,Fiskdale,MA,01518,508-347-3077,508-347-2697
Brookline,00460000,Public School District,Title I District,Superintendent,Jim Marini,333 Washington Street,,Brookline,MA,02445,617-730-2403,617-730-2601
Buckland (non-op),00470000,Public School District,Non-Title I District,Superintendent,Michael Buoniconti,24 Ashfield Rd,,Shelburne Falls,MA,01370,413-625-0192,413-625-0196
Burlington,00480000,Public School District,Title I District,Superintendent,Eric Conti,123 Cambridge Street,,Burlington,MA,01803,781-270-1801,781-270-1773
Cambridge,00490000,Public School District,Title I District,Superintendent,Kenneth Salim,135 Berkshire Street,,Cambridge,MA,02141,617-349-6494,617-349-6496
Canton,00500000,Public School District,Title I District,Superintendent,Jennifer Fischer-Mueller,960 Washington Street,,Canton,MA,02021,781-821-5060,781-575-6500
Cape Cod Lighthouse Charter (District),04320000,Charter District,Title I District,Charter School Leader,Paul Niles,195 Route 137,,East Harwich,MA,02645,774-408-7994,774-237-9041
Cape Cod Regional Vocational Technical,08150000,Public School District,Title I District,Superintendent,Robert Sanborn,351 Pleasant Lake Avenue,,Harwich,MA,02645,508-432-4500,508-432-7916
Carlisle,00510000,Public School District,Title I District,Superintendent,James O'Shea,83 School Street,,Carlisle,MA,01741,978-369-6550,978-371-2400
Carver,00520000,Public School District,Title I District,Superintendent,Scott Knief,3 Carver Square Blvd.,,Carver,MA,02330,508-866-6160,508-866-2920
Central Berkshire,06350000,Public School District,Title I District,Superintendent,Leslie Blake-Davis,PO Box 299,Rt 8,Dalton,MA,01227,413-684-0320,413-684-4088
Charlemont (non-op),00530000,Public School District,Non-Title I District,Superintendent,Michael Buoniconti,24 Ashfield Rd,,Shelburne Falls,MA,01370,413-625-0192,413-625-0196
Charlton (non-op),00540000,Public School District,Non-Title I District,Superintendent,Gregg Desto,68 Dudley Oxford Road,,Dudley,MA,01571,508-943-6888,508-943-1077
Chatham (non-op),00550000,Public School District,Non-Title I District,Superintendent,Scott Carpenter,425 Crowell Rd,,Chatham,MA,02633,508-945-5130,508-945-5133
Chelmsford,00560000,Public School District,Title I District,Superintendent,Roger Lang,230 North Road,,Chelmsford,MA,01824,978-251-5100,978-251-5110
Chelsea,00570000,Public School District,Title I District,Superintendent,Almudena Abeyta,500 Broadway,Room 216,Chelsea,MA,02150,617-466-4477,617-889-8361
Cheshire (non-op),00580000,Public School District,Non-Title I District,Superintendent,Kristen Gordon,191 Church Street,,Cheshire,MA,01225,413-743-2939,413-743-4135
Chester (non-op),00590000,Public School District,Non-Title I District,Superintendent,David Hopson,12 Littleville Road,,Huntington,MA,01050,413-685-1011,413-667-8739
Chesterfield (non-op),00600000,Public School District,Non-Title I District,Superintendent,Craig Jurgensen,19 Stage Rd,,Westhampton,MA,01027,413-527-7200,413-529-9497
Chesterfield-Goshen,06320000,Public School District,Non-Title I District,Superintendent,Aaron Osborne,PO Box 300,,Chesterfield,MA,01012,413-527-7200,413-529-9497
Chicopee,00610000,Public School District,Title I District,Superintendent,Lynn Clark,180 Broadway Street,,Chicopee,MA,01020,413-594-3410,413-594-3552
Chilmark (non-op),00620000,Public School District,Non-Title I District,Superintendent,Matthew D'Andrea,4 Pine Street,,Vineyard Haven,MA,02568,508-693-2007,508-693-3190
Christa McAuliffe Charter Public (District),04180000,Charter District,Title I District,Charter School Leader,Frank Tipton,139 Newbury St,,Framingham,MA,01701,508-879-9000,508-471-3135
City on a Hill Charter Public School Circuit Street (District),04370000,Charter District,Title I District,Charter School Leader,Kevin Taylor,15 Allerton Street,Suite 1,Roxbury,MA,02119,617-445-9457,--
City on a Hill Charter Public School Dudley Square (District),35040000,Charter District,Title I District,Charter School Leader,Kevin Taylor,58 Circuit Strert,,Roxbury,MA,02119,617-445-1515,--
City on a Hill Charter Public School New Bedford (District),35070000,Charter District,Title I District,Charter School Leader,Kevin Taylor,58 Circuit Strert,,Boston,MA,02119,617-445-1515,--
Clarksburg,00630000,Public School District,Title I District,Superintendent,John Franzoni,777 West Crossroad,,Clarksburg,MA,01247,413-664-8735,413-664-8735
Clinton,00640000,Public School District,Title I District,Superintendent,Steven Meyer,150 School Street,,Clinton,MA,01510,978-365-4200,978-365-5037
Codman Academy Charter Public (District),04380000,Charter District,Title I District,Charter School Leader,Thabiti Brown,637 Washington Street,,Dorchester,MA,02124,617-287-0700,617-287-9064
Cohasset,00650000,Public School District,Title I District,Superintendent,Patrick Sullivan,143 Pond Street,,Cohasset,MA,02025,781-383-6112,781-383-6507
Collegiate Charter School of Lowell (District),35030000,Charter District,Title I District,Charter School Leader,Laurie Hodgdon,1857 Middlesex Street,,Lowell,MA,01851,978-458-1399,978-458-1366
Colrain (non-op),00660000,Public School District,Non-Title I District,Superintendent,Michael Buoniconti,24 Ashfield Rd,,Shelburne Falls,MA,01370,413-625-0192,413-625-0196
Community Charter School of Cambridge (District),04360000,Charter District,Title I District,Charter School Leader,Rebecca Norris,245 Bent Street,,Cambridge,MA,02141,617-354-0047,617-354-3624
Community Day Charter Public School - Gateway (District),04260000,Charter District,Title I District,Charter School Leader,Mary Chance,190 Hampshire Street,,Lawrence,MA,01840,978-722-2538,978-686-9382
Community Day Charter Public School - Prospect (District),04400000,Charter District,Title I District,Charter School Leader,Mary Chance,190 Hampshire Street,,Lawrence,MA,01840,978-722-2538,978-681-5838
Community Day Charter Public School - R. Kingman Webster (District),04310000,Charter District,Title I District,Charter School Leader,Mary Chance,190 Hampshire Street,,Lawrence,MA,01840,978-686-9327,978-687-0513
Concord,00670000,Public School District,Title I District,Superintendent,Laurie Hunter,120 Meriam Rd,,Concord,MA,01742,978-318-1500,978-318-1537
Concord-Carlisle,06400000,Public School District,Title I District,Superintendent,Laurie Hunter,120 Meriam Rd,,Concord,MA,01742,978-341-2490,978-318-1537
Conservatory Lab Charter (District),04390000,Charter District,Title I District,Charter School Leader,John Chistolini,2120 Dorchester Avenue,,Dorchester,MA,02124,617-254-8904,617-254-8909
Conway,00680000,Public School District,Non-Title I District,Superintendent,Darius Modestow,"113 North Main Street, Office C101",,South Deerfield,MA,01373,413-665-1155,413-665-8506
Cummington (non-op),00690000,Public School District,Non-Title I District,Superintendent,Laurie Casna,254 Hinsdale Road,Box 299,Dalton,MA,01227,413-684-0320,413-684-4088
Dalton (non-op),00700000,Public School District,Non-Title I District,Superintendent,Laurie Casna,PO Box 299,,Dalton,MA,01227,413-684-0320,413-684-4088
Danvers,00710000,Public School District,Title I District,Superintendent,Lisa Dana,64 Cabot Road,,Danvers,MA,01923,978-777-4539,978-777-8931
Dartmouth,00720000,Public School District,Title I District,Superintendent,Bonny Gifford,8 Bush Street,,Dartmouth,MA,02748,508-997-3391,508-991-4184
Dedham,00730000,Public School District,Title I District,Superintendent,Michael Welch,100 Whiting Avenue,,Dedham,MA,02026,781-310-1000,781-320-0193
Deerfield,00740000,Public School District,Title I District,Superintendent,Darius Modestow,"113 North Main Street, Office C101",,South Deerfield,MA,01373,413-665-1155,413-665-8506
Dennis (non-op),00750000,Public School District,Non-Title I District,Superintendent,Carol Woodbury,296 Station Avenue,,South Yarmouth,MA,02664,508-398-7605,508-398-7622
Dennis-Yarmouth,06450000,Public School District,Title I District,Superintendent,Carol Woodbury,296 Station Avenue,,South Yarmouth,MA,02664,508-398-7600,508-398-7622
Devens (non-op),03520000,Public School District,Non-Title I District,Superintendent,Linda Dwight,270 Barnum Rd,,Devens,MA,01432,978-772-6340,978-772-7577
Dighton (non-op),00760000,Public School District,Non-Title I District,Superintendent,Anthony Azar,2700 Regional Road,,North Dighton,MA,02764,508-252-5000,508-252-5024
Dighton-Rehoboth,06500000,Public School District,Title I District,Superintendent,Anthony Azar,2700 Regional Road,,North Dighton,MA,02764,508-252-5000,508-252-5024
Douglas,00770000,Public School District,Title I District,Superintendent,Paul Vieira,21 Davis Street,,Douglas,MA,01516,508-476-7901,508-476-4423
Dover,00780000,Public School District,Title I District,Superintendent,Andrew Keough,157 Farm Street,,Dover,MA,02030,508-785-0036,508-785-2239
Dover-Sherborn,06550000,Public School District,Title I District,Superintendent,Andrew Keough,157 Farm Street,,Dover,MA,02030,508-785-0036,508-785-2239
Dracut,00790000,Public School District,Title I District,Superintendent,Steven Stone,2063 Lakeview Avenue,,Dracut,MA,01826,978-957-2660,978-957-2682
Dudley (non-op),00800000,Public School District,Non-Title I District,Superintendent,Gregg Desto,68 Dudley Oxford Road,,Dudley,MA,01571,508-943-6888,508-943-1077
Dudley Street Neighborhood Charter School (District),04070000,Charter District,Title I District,Charter School Leader,Jesse Solomon,6 Shirley Street,,Boston,MA,02119,617-635-8507,617-635-6320
Dudley-Charlton Reg,06580000,Public School District,Title I District,Superintendent,Steven Lamarche,68 Dudley Oxford Road,,Dudley,MA,01571,508-943-6888,508-943-1077
Dunstable (non-op),00810000,Public School District,Non-Title I District,Superintendent,Laura Chesson,344 Main Street,,Groton,MA,01450,978-448-5505,978-448-9402
Duxbury,00820000,Public School District,Title I District,Superintendent,John Antonucci,93 Chandler Street,,Duxbury,MA,02332,781-934-7600,781-934-7644
East Bridgewater,00830000,Public School District,Title I District,Superintendent,Elizabeth Legault,143 Plymouth Street,,East Bridgewater,MA,02333,508-378-8200,508-378-8225
East Brookfield (non-op),00840000,Public School District,Non-Title I District,Superintendent,Paul Haughey,306 Main Street,,Spencer,MA,01562,508-885-8500,508-885-8504
East Longmeadow,00870000,Public School District,Title I District,Superintendent,Gordon Smith,180 Maple Street,,East Longmeadow,MA,01028,413-525-5450,413-525-5456
Eastham,00850000,Public School District,Title I District,Superintendent,Thomas Conrad,78 Eldredge Pkwy,,Orleans,MA,02653,508-255-8800,508-240-2351
Easthampton,00860000,Public School District,Title I District,Superintendent,Allison Leclair,50 Payson Avenue,Second Floor,Easthampton,MA,01027,413-529-1500,413-529-1567
Easton,00880000,Public School District,Title I District,Superintendent,Lisha Cabral,50 Oliver Street,,North Easton,MA,02356,508-230-3200,508-238-3563
Edgartown,00890000,Public School District,Title I District,Superintendent,Matthew D'Andrea,4 Pine Street,,Vineyard Haven,MA,02568,508-693-2007,508-693-3190
Edward M. Kennedy Academy for Health Careers (Horace Mann Charter) (District),04520000,Charter District,Title I District,Charter School Leader,Caren Walker Gregory,360 Huntington Avenue,c/o 102 Cahners Hall,Boston,MA,02115,617-373-8576,617-373-7850
Egremont (non-op),00900000,Public School District,Non-Title I District,Superintendent,Beth Regulbuto,PO Box 339,,Sheffield,MA,01257,413-229-8734,413-229-2913
Erving,00910000,Public School District,Title I District,Superintendent,Jennifer Culkeen,18 Pleasant Street,,Erving,MA,01344,413-423-3337,413-423-3236
Essex (non-op),00920000,Public School District,Non-Title I District,Superintendent,Pamela Beaudoin,36 Lincoln Street,P. O. Box 1407,Manchester,MA,01944,978-526-4919,--
Essex North Shore Agricultural and Technical School District,08170000,Public School District,Title I District,Superintendent,Heidi Riccio,565 Maple Street,P.O. Box 346,Hathorne,MA,01937,978-304-4700,--
Everett,00930000,Public School District,Title I District,Superintendent,Priya Tahiliani,121 Vine Street,,Everett,MA,02149,617-389-7950,617-394-2408
Excel Academy Charter (District),04100000,Charter District,Title I District,Charter School Leader,Owen Stearns,58 Moore Street,,East Boston,MA,02128,617-874-4080,617-674-3436
Fairhaven,00940000,Public School District,Title I District,Superintendent,Robert Baldwin,128 Washington Street,,Fairhaven,MA,02719,508-979-4000,508-979-4149
Fall River,00950000,Public School District,Title I District,Superintendent,Matthew Malone,417 Rock Street,,Fall River,MA,02720,508-675-8420,508-675-8462
Falmouth,00960000,Public School District,Title I District,Superintendent,Lori Duerr,340 Teaticket Hwy,,East Falmouth,MA,02536,508-548-0151,508-457-9032
Farmington River Reg,06620000,Public School District,Title I District,Superintendent,Thomas Nadolny,555 N Main Street,PO Box 679,Otis,MA,01253,413-269-4466,413-269-7659
Fitchburg,00970000,Public School District,Title I District,Superintendent,Robert Jokela,376 South Street,,Fitchburg,MA,01420,978-345-3200,978-348-2305
Florida,00980000,Public School District,Title I District,Superintendent,John Franzoni,56 North County Rd,,Florida,MA,01247,413-664-6023,413-663-3593
Four Rivers Charter Public (District),04130000,Charter District,Title I District,Charter School Leader,Peter Garbus,248 Colrain Road,,Greenfield,MA,01301,413-775-4577,413-775-4578
Foxborough,00990000,Public School District,Title I District,Superintendent,Amy Berdos,60 South Street,C/O Igo Administration Building,Foxborough,MA,02035,508-543-1660,508-543-4793
Foxborough Regional Charter (District),04460000,Charter District,Title I District,Charter School Leader,Mark Logan,131 Central Street,35 Commercial Street,Foxborough,MA,02035,508-543-2508,508-543-7982
Framingham,01000000,Public School District,Title I District,Superintendent,Robert Tremblay,73 Mt. Wayte Avenue,Suite 5,Framingham,MA,01702,508-626-9118,508-877-4240
Francis W. Parker Charter Essential (District),04780000,Charter District,Non-Title I District,Charter School Leader,Todd Sumner,49 Antietam Street,,Devens,MA,01434,978-772-3293,978-772-3295
Franklin,01010000,Public School District,Title I District,Superintendent,Sara Ahern,355 East Central Street,,Franklin,MA,02038,508-541-5243,508-553-0321
Franklin County Regional Vocational Technical,08180000,Public School District,Title I District,Superintendent,Richard Martin,82 Industrial Blvd,,Turners Falls,MA,01376,413-863-9561,413-863-2816
Freetown (non-op),01020000,Public School District,Non-Title I District,Superintendent,Richard Medeiros,98 Howland Rd,,Lakeville,MA,02347,508-923-2000,508-923-0934
Freetown-Lakeville,06650000,Public School District,Title I District,Superintendent,Richard Medeiros,98 Howland Rd,,Lakeville,MA,02347,508-923-2000,508-923-0934
Frontier,06700000,Public School District,Title I District,Superintendent,Darius Modestow,"113 North Main Street, Office C101",,South Deerfield,MA,01373,413-665-1155,413-665-8506
Gardner,01030000,Public School District,Title I District,Superintendent,Mark Pellegrino,70 Waterford Street,,Gardner,MA,01440,978-632-1000,978-632-1164
Gateway,06720000,Public School District,Title I District,Superintendent,David Hopson,12 Littleville Road,,Huntington,MA,01050,413-685-1000,413-667-8739
Georgetown,01050000,Public School District,Title I District,Superintendent,Carol Jacobs,51 North Street,,Georgetown,MA,01833,978-352-5777,978-352-5778
Gill (non-op),01060000,Public School District,Non-Title I District,Superintendent,Michael Sullivan,35 Crocker Avenue,,Turners Falls,MA,01376,413-863-9324,413-863-4560
Gill-Montague,06740000,Public School District,Title I District,Superintendent,Brian Beck,35 Crocker Avenue,,Turners Falls,MA,01376,413-863-9324,413-863-4560
Global Learning Charter Public (District),04960000,Charter District,Title I District,Charter School Leader,Stephen Furtado,190 Ashley Boulevard,,New Bedford,MA,02746,508-991-4105,508-991-4110
Gloucester,01070000,Public School District,Title I District,Superintendent,Ben Lummis,2 Blackburn Drive,,Gloucester,MA,01930,978-281-9800,978-281-9899
Goshen (non-op),01080000,Public School District,Non-Title I District,Superintendent,Craig Jurgensen,19 Stage Rd,,Westhampton,MA,01027,413-527-7200,413-529-9497
Gosnold,01090000,Public School District,Non-Title I District,Superintendent,Margaret Frieswyk,263 Hill & Plain Road,,East Falmouth,MA,02536,508-400-4687,--
Grafton,01100000,Public School District,Title I District,Superintendent,James Cummings,30 Providence Rd,,Grafton,MA,01519,508-839-5421,508-839-7618
Granby,01110000,Public School District,Title I District,Superintendent,Carol Hepworth,387 East State Street,,Granby,MA,01033,413-467-7193,413-467-3909
Granville (non-op),01120000,Public School District,Non-Title I District,Superintendent,Jennifer Willard,86 Powder Mill Road,,Southwick,MA,01077,413-569-5391,413-569-1711
Great Barrington (non-op),01130000,Public School District,Non-Title I District,Superintendent,Peter Dillon,207 Pleasant Street,PO Box 596,Housatonic,MA,01236,413-274-6400,--
Greater Fall River Regional Vocational Technical,08210000,Public School District,Title I District,Superintendent,Elvio Ferreira,251 Stonehaven Rd,,Fall River,MA,02723,508-678-2891,508-679-6423
Greater Lawrence Regional Vocational Technical,08230000,Public School District,Title I District,Superintendent,John Lavoie,57 River Rd,,Andover,MA,01810,978-686-0194,978-687-6209
Greater Lowell Regional Vocational Technical,08280000,Public School District,Title I District,Superintendent,Jill Davis,250 Pawtucket Blvd,,Tyngsborough,MA,01879,978-441-4800,978-441-5353
Greater New Bedford Regional Vocational Technical,08250000,Public School District,Title I District,Superintendent,James O'Brien,1121 Ashley Blvd,,New Bedford,MA,02745,508-998-3321,508-995-7268
Greenfield,01140000,Public School District,Title I District,Superintendent,Jordana Harper,"195 Federal Street, Suite 100",,Greenfield,MA,01301,413-772-1311,413-774-7940
Greenfield Commonwealth Virtual District,39010000,Public School District,Title I District,Superintendent,Salah Khelfaoui,238 Main St.,3rd Floor,Greenfield,MA,01301,413-475-3879,413-475-3909
Groton (non-op),01150000,Public School District,Non-Title I District,Superintendent,Laura Chesson,344 Main Street,,Groton,MA,01450,978-448-5505,978-448-9402
Groton-Dunstable,06730000,Public School District,Title I District,Superintendent,Laura Chesson,344 Main Street,,Groton,MA,01450,978-448-5505,978-448-9402
Groveland (non-op),01160000,Public School District,Non-Title I District,Superintendent,Justin Bartholomew,22 Main Street,,West Newbury,MA,01985,617-363-2280,--
Hadley,01170000,Public School District,Title I District,Superintendent,Anne McKenzie,125 Russell Street,,Hadley,MA,01035,413-586-0822,413-582-6453
Halifax,01180000,Public School District,Title I District,Superintendent,Jill Proulx,250 Pembroke Street,,Kingston,MA,02364,781-585-4313,781-585-2994
Hamilton (non-op),01190000,Public School District,Non-Title I District,Superintendent,Mary Beth Banios,5 School Street,,Wenham,MA,01984,978-468-5310,978-468-7889
Hamilton-Wenham,06750000,Public School District,Title I District,Superintendent,Mary Beth Banios,5 School Street,,Wenham,MA,01984,978-468-5310,978-468-7889
Hampden (non-op),01200000,Public School District,Non-Title I District,Superintendent,Albert Ganem,621 Main Street,,Wilbraham,MA,01095,413-596-3884,413-599-1328
Hampden Charter School of Science East (District),04990000,Charter District,Title I District,Charter School Leader,Tarkan Topcuoglu,20 Johnson Road,,Chicopee,MA,01022,413-593-9090,413-294-2648
Hampden Charter School of Science West (District),35160000,Charter District,Title I District,Charter School Leader,Tarkan Topcuoglu,511 Main St.,,West Springfield,MA,01089,413-278-5450,413-278-5387
Hampden-Wilbraham,06800000,Public School District,Title I District,Superintendent,Albert Ganem,621 Main Street,,Wilbraham,MA,01095,413-596-3884,413-599-1328
Hampshire,06830000,Public School District,Title I District,Superintendent,Aaron Osborne,19 Stage Rd,,Westhampton,MA,01027,413-527-7200,413-529-9497
Hancock,01210000,Public School District,Non-Title I District,Superintendent,Rebecca Phillips,3080 HANCOCK ROAD,,HANCOCK,MA,01237,413-738-5676,413-739-5676
Hanover,01220000,Public School District,Title I District,Superintendent,Matthew Ferron,188 Broadway Street,,Hanover,MA,02339,781-878-0786,781-871-3374
Hanson (non-op),01230000,Public School District,Non-Title I District,Superintendent,Jeffrey Szymaniak,610 Franklin Street,,Whitman,MA,02382,781-618-7412,781-618-7498
Hardwick (non-op),01240000,Public School District,Non-Title I District,Superintendent,Sheila Muir,PO Box 576,,Gilbertville,MA,01031,413-477-6351,--
Harvard,01250000,Public School District,Title I District,Superintendent,Linda Dwight,39 Massachusetts Avenue,,Harvard,MA,01451,978-456-4140,978-456-8592
Harwich (non-op),01260000,Public School District,Non-Title I District,Superintendent,Scott Carpenter,425 Crowell Rd,,Chatham,MA,02633,508-945-5130,508-945-5133
Hatfield,01270000,Public School District,Title I District,Superintendent,Martin Mcevoy,34 School Street,,Hatfield,MA,01038,413-247-5641,413-247-0201
Haverhill,01280000,Public School District,Title I District,Superintendent,Margaret Marotta,4 Summer Street,,Haverhill,MA,01830,978-374-3405,978-373-1535
Hawlemont,06850000,Public School District,Title I District,Superintendent,Sheryl Stanton,24 Ashfield Rd,,Shelburne Falls,MA,01370,413-625-0192,413-625-0196
Hawley (non-op),01290000,Public School District,Non-Title I District,Superintendent,Michael Buoniconti,24 Ashfield Rd,,Shelburne Falls,MA,01370,413-625-0192,413-625-0196
Heath (non-op),01300000,Public School District,Non-Title I District,Superintendent,Michael Buoniconti,24 Ashfield Rd,,Shelburne Falls,MA,01370,413-625-0192,413-625-0196
Helen Y. Davis Leadership Academy Charter Public (District),04190000,Charter District,Title I District,Charter School Leader,Chris Coblyn,23 Leonard Street,,Boston,MA,02122,617-474-7950,617-474-7957
Hill View Montessori Charter Public (District),04550000,Charter District,Title I District,Charter School Leader,Phil Arnold,75 Foundation Ave,Ward Hill Business Park,Haverhill,MA,01835,978-521-2616,978-521-2656
Hilltown Cooperative Charter Public (District),04500000,Charter District,Title I District,Charter School Leader,Kate Saccento,1 Industrial Parkway,,Easthampton,MA,01039,413-529-7178,413-527-1530
Hingham,01310000,Public School District,Title I District,Superintendent,Paul Austin,220 Central Street,,Hingham,MA,02043,781-741-1500,781-749-7457
Hinsdale (non-op),01320000,Public School District,Non-Title I District,Superintendent,Laurie Casna,PO Box 299,,Dalton,MA,01227,413-684-0320,413-684-4088
Holbrook,01330000,Public School District,Title I District,Superintendent,Julie Hamilton,245 So. Franklin Street,,Holbrook,MA,02343,781-767-1226,781-767-1312
Holden (non-op),01340000,Public School District,Non-Title I District,Superintendent,Darryll McCall,Jefferson School,1745 Main Street,Jefferson,MA,01522,508-829-1670,508-829-1680
Holland,01350000,Public School District,Title I District,Superintendent,Erin Nosek,320 Brookfield Rd,,Fiskdale,MA,01518,508-347-3077,508-347-2697
Holliston,01360000,Public School District,Title I District,Superintendent,Susan Kustka,370 Hollis Street,,Holliston,MA,01746,508-429-0654,508-429-0653
Holyoke,01370000,Public School District,Title I District,Superintendent,Alberto Vazquez Matos,57 Suffolk Street,,Holyoke,MA,01040,413-534-2005,413-534-2297
Holyoke Community Charter (District),04530000,Charter District,Title I District,Charter School Leader,Sonia Pope,2200 Northampton Street,,Holyoke,MA,01040,413-533-0111,413-536-5444
Hoosac Valley Regional,06030000,Public School District,Title I District,Superintendent,Aaron Dean,191 Church St,,Cheshire,MA,01225,413-743-2939,413-743-4135
Hopedale,01380000,Public School District,Title I District,Superintendent,Karen Crebase,25 Adin Street,,Hopedale,MA,01747,508-634-2220,508-478-1471
Hopkinton,01390000,Public School District,Title I District,Superintendent,Carol Cavanaugh,89 Hayden Rowe Street,,Hopkinton,MA,01748,508-417-9360,508-497-9833
Hubbardston (non-op),01400000,Public School District,Non-Title I District,Superintendent,Sheila Muir,8 Elm Street,,Hubbardston,MA,01452,978-928-4487,--
Hudson,01410000,Public School District,Title I District,Superintendent,Marco Rodrigues,155 Apsley Street,,Hudson,MA,01749,978-567-6100,978-567-6123
Hull,01420000,Public School District,Title I District,Superintendent,Judith Kuehn,18 Harborview Road,,Hull,MA,02045,781-925-4400,781-925-8042
Huntington (non-op),01430000,Public School District,Non-Title I District,Superintendent,David Hopson,12 Littleville Road,,Huntington,MA,01050,413-685-1011,413-667-8739
Innovation Academy Charter (District),04350000,Charter District,Title I District,Charter School Leader,Gregory Orpen,72 Tyng Road,,Tyngsborough,MA,01879,978-649-0432,978-649-6337
Institutional Schools,03700000,Public School District,Non-Title I District,Superintendent,Shawn Connelly,75 Pleasant Street,Room 4-429,Malden,MA,02148,781-338-3305,--
Ipswich,01440000,Public School District,Title I District,Superintendent,Brian Blake,1 Lord Square,,Ipswich,MA,01938,978-356-2935,978-356-0445
KIPP Academy Boston Charter School (District),04630000,Charter District,Title I District,Charter School Leader,Rhonda Barnes,37 Babson Street,KIPP Academy Boston,Mattapan,MA,02126,617-393-5682,617-652-7461
KIPP Academy Lynn Charter (District),04290000,Charter District,Title I District,Charter School Leader,Rhonda Barnes,90 High Rock Street,,Lynn,MA,01902,781-598-1609,781-598-1639
King Philip,06900000,Public School District,Title I District,Superintendent,Paul Zinni,18 King Street,,Norfolk,MA,02056,508-520-7991,508-520-8315
Kingston,01450000,Public School District,Title I District,Superintendent,Jill Proulx,250 Pembroke Street,,Kingston,MA,02364,781-585-4313,781-585-2994
Lakeville (non-op),01460000,Public School District,Non-Title I District,Superintendent,Richard Medeiros,98 Howland Rd,,Lakeville,MA,02347,508-923-2000,508-923-0934
Lancaster (non-op),01470000,Public School District,Non-Title I District,Superintendent,Brooke Clenchy,50 Mechanic Street,,Bolton,MA,01740,978-779-0539,978-779-6812
Lanesborough (non-op),01480000,Public School District,Non-Title I District,Superintendent,Kimberley Grady,1781 Cold Spring,,Williamstown,MA,01267,413-458-9582,413-458-2856
Lawrence,01490000,Public School District,Title I District,Superintendent,Cynthia Paris,237 Essex Street,,Lawrence,MA,01840,978-975-5905,978-722-8541
Lawrence Family Development Charter (District),04540000,Charter District,Title I District,Charter School Leader,Ralph Carrero,34 West Street,,Lawrence,MA,01841,978-689-9863,978-689-8133
Lee,01500000,Public School District,Title I District,Superintendent,Michael Richard,300A Greylock St,,Lee,MA,01238,413-243-0276,413-243-4995
Leicester,01510000,Public School District,Title I District,Superintendent,Marilyn Tencza,3 Washburn Square,3rd Floor,Leicester,MA,01524,508-892-7040,508-892-7043
Lenox,01520000,Public School District,Title I District,Superintendent,William Cameron,6 Walker Street,,Lenox,MA,01240,413-637-5550,413-637-5559
Leominster,01530000,Public School District,Title I District,Superintendent,Paula Deacon,24 Church Street,,Leominster,MA,01453,978-534-7700,978-534-7775
Leverett,01540000,Public School District,Non-Title I District,Superintendent,Jennifer Culkeen,18 Pleasant Street,,Erving,MA,01344,413-423-3337,413-423-3236
Lexington,01550000,Public School District,Title I District,Superintendent,Julie Hackett,146 Maple Street,,Lexington,MA,02420,781-861-2580,781-863-5829
Leyden (non-op),01560000,Public School District,Non-Title I District,Superintendent,Jonathan Scagel,97 F Sumner Turner Rd,,Northfield,MA,01360,413-498-2911,413-498-0045
Libertas Academy Charter School (District),35140000,Charter District,Title I District,Charter School Leader,Modesto Montero,146 Chestnut Street,,Springfield,MA,01103,413-342-5510,--
Lincoln,01570000,Public School District,Title I District,Superintendent,Rebecca McFall,1 Ballfield Road,,Lincoln,MA,01773,781-259-9409,781-259-9246
Lincoln-Sudbury,06950000,Public School District,Title I District,Superintendent,Bella Wong,390 Lincoln Rd,,Sudbury,MA,01776,978-443-9961,978-443-8824
Littleton,01580000,Public School District,Title I District,Superintendent,Kelly Clenchy,PO Box 1486,,Littleton,MA,01460,978-540-2500,978-486-9581
Longmeadow,01590000,Public School District,Title I District,Superintendent,Maurice O'shea,535 Bliss Road,,Longmeadow,MA,01106,413-565-4200,413-565-4215
Lowell,01600000,Public School District,Title I District,Superintendent,Joel Boyd,155 Merrimack Street,,Lowell,MA,01852,978-674-4320,978-937-7609
Lowell Community Charter Public (District),04560000,Charter District,Title I District,Charter School Leader,Nicholas Leonardos,206 Jackson Street,,Lowell,MA,01852,978-323-0800,978-323-4600
Lowell Middlesex Academy Charter (District),04580000,Charter District,Title I District,Charter School Leader,Margaret McDevitt,67 Middle St,,Lowell,MA,01852,978-656-3165,978-459-0456
Ludlow,01610000,Public School District,Title I District,Superintendent,Todd Gazda,63 Chestnut Street,,Ludlow,MA,01056,413-583-8372,413-583-5666
Lunenburg,01620000,Public School District,Title I District,Superintendent,Kathleen Burnham,1025 Mass Avenue,,Lunenburg,MA,01462,978-582-4100,978-582-4103
Lynn,01630000,Public School District,Title I District,Superintendent,Patrick Tutwiler,100 Bennett St,,Lynn,MA,01905,781-593-1680,781-477-7487
Lynnfield,01640000,Public School District,Title I District,Superintendent,Kristen Vogel,525 Salem Street,,Lynnfield,MA,01940,781-334-9200,781-581-5231
MATCH Charter Public School (District),04690000,Charter District,Title I District,Charter School Leader,Nnenna Ude,1001 Commonwealth Avenue,,Boston,MA,02215,617-232-0300,617-232-2838
Ma Academy for Math and Science,04680000,Public School District,Non-Title I District,Superintendent,Michael Barney,85 Prescott Street,,Worcester,MA,01605,508-831-5859,508-831-5880
Malden,01650000,Public School District,Title I District,Superintendent,John Oteri,77 Salem Street,,Malden,MA,02148,781-397-6100,781-397-7276
Manchester (non-op),01660000,Public School District,Non-Title I District,Superintendent,Pamela Beaudoin,36 Lincoln Street,,Manchester,MA,01944,978-526-4919,978-526-7585
Manchester Essex Regional,06980000,Public School District,Title I District,Superintendent,Pamela Beaudoin,PO BOX 1407,,Manchester,MA,01944,978-526-4919,978-526-7585
Mansfield,01670000,Public School District,Title I District,Superintendent,Teresa Murphy,2 Park Row,,Mansfield,MA,02048,508-261-7500,508-261-7509
Map Academy Charter School (District),35170000,Charter District,Title I District,Charter School Leader,Rachel Babcock,11 Resnik Road,,Plymouth,MA,02360,508-830-9500,508-425-2441
Marblehead,01680000,Public School District,Title I District,Superintendent,John Buckey,9 Widger Road,,Marblehead,MA,01945,781-639-3141,781-639-3149
Marblehead Community Charter Public (District),04640000,Charter District,Title I District,Charter School Leader,Peter Cohen,17 Lime Street,,Marblehead,MA,01945,781-631-0777,781-631-0500
Marion,01690000,Public School District,Title I District,Superintendent,Michael Nelson,135 Marion Rd,,Mattapoisett,MA,02739,508-758-2772,508-758-2802
Marlborough,01700000,Public School District,Title I District,Superintendent,Michael Bergeron,17 Washington Street,,Marlborough,MA,01752,508-460-3509,508-485-1142
Marshfield,01710000,Public School District,Title I District,Superintendent,Jeffrey Granatino,76 South River Street,,Marshfield,MA,02050,781-834-5000,781-834-5070
Martha's Vineyard,07000000,Public School District,Title I District,Superintendent,Matthew D'Andrea,4 Pine Street,,Vineyard Haven,MA,02568,508-693-2007,508-693-3190
Martha's Vineyard Charter (District),04660000,Charter District,Title I District,Charter School Leader,Peter Steedman,PO Box 1150,,West Tisbury,MA,02575,508-693-9900,508-696-9008
Martin Luther King Jr. Charter School of Excellence (District),04920000,Charter District,Title I District,Charter School Leader,Kendra Salvador,285 Dorset Street,,Springfield,MA,01108,413-214-7806,413-214-7838
Masconomet,07050000,Public School District,Title I District,Superintendent,Michael Harvey,20 Endicott Rd,,Boxford,MA,01921,978-887-2323,978-887-3573
Mashpee,01720000,Public School District,Title I District,Superintendent,Patricia DeBoer,150-A Old Barnstable Road,,Mashpee,MA,02649,508-539-1500,508-477-5805
Mattapoisett,01730000,Public School District,Title I District,Superintendent,Michael Nelson,135 Marion Rd,,Mattapoisett,MA,02739,508-758-2772,508-758-2802
Maynard,01740000,Public School District,Title I District,Superintendent,Brian Haas,3-R Tiger Drive,,Maynard,MA,01754,978-897-2222,978-897-4610
Medfield,01750000,Public School District,Non-Title I District,Superintendent,Jeffrey Marsden,459 Main St,3rd Fl,Medfield,MA,02052,508-359-2302,508-359-9829
Medford,01760000,Public School District,Title I District,Superintendent,Marice Edouard-Vincent,489 Winthrop Street,,Medford,MA,02155,781-393-2442,781-393-2322
Medway,01770000,Public School District,Title I District,Superintendent,Armand Pires,45 Holliston Street,,Medway,MA,02053,508-533-3222,508-533-3226
Melrose,01780000,Public School District,Title I District,Superintendent,Julie Kukenberger,360 Lynn Fells Pkwy,,Melrose,MA,02176,781-662-2000,781-979-2285
Mendon (non-op),01790000,Public School District,Non-Title I District,Superintendent,Joseph Maruszczak,"150 North Ave, POB 5",,Mendon,MA,01756,508-634-1585,508-634-1582
Mendon-Upton,07100000,Public School District,Title I District,Superintendent,Joseph Maruszczak,150 North Ave,,Mendon,MA,01756,508-634-1585,508-634-1582
Merrimac (non-op),01800000,Public School District,Non-Title I District,Superintendent,Justin Bartholomew,22 Main Street,,West Newbury,MA,01985,978-363-2280,978-363-1165
Methuen,01810000,Public School District,Title I District,Superintendent,Brandi Kwong,10 Ditson Place,,Methuen,MA,01844,978-722-6001,978-722-6002
Middleborough,01820000,Public School District,Title I District,Superintendent,Brian Lynch,30 Forest Street,,Middleborough,MA,02346,508-946-2000,508-946-2004
Middlefield (non-op),01830000,Public School District,Non-Title I District,Superintendent,David Hopson,12 Littleville Road,,Huntington,MA,01050,413-685-1011,413-667-8739
Middleton,01840000,Public School District,Title I District,Superintendent,Scott Morrison,28 Middleton Road,,Boxford,MA,01921,978-887-0771,978-887-8042
Milford,01850000,Public School District,Title I District,Superintendent,Kevin Mcintyre,31 West Fountain Street,,Milford,MA,01757,508-478-1101,508-478-1459
Millbury,01860000,Public School District,Title I District,Superintendent,Gregory Myers,12 Martin Street,,Millbury,MA,01527,508-865-9501,508-865-0888
Millis,01870000,Public School District,Title I District,Superintendent,Nancy Gustafson,245 Plain Street,Central Office,Millis,MA,02054,508-376-7000,508-376-7020
Millville (non-op),01880000,Public School District,Non-Title I District,Superintendent,Jason Defalco,175 Lincoln Street,,Blackstone,MA,01504,508-883-4400,508-883-9892
Milton,01890000,Public School District,Title I District,Superintendent,Mary Gormley,25 Gile Road,,Milton,MA,02186,617-696-4808,617-696-5099
Minuteman Regional Vocational Technical,08300000,Public School District,Title I District,Superintendent,Edward Bouquillon,758 Marrett Rd,,Lexington,MA,02421,781-861-6500,781-863-1747
Mohawk Trail,07170000,Public School District,Title I District,Superintendent,Sheryl Stanton,24 Ashfield Rd,,Shelburne Falls,MA,01370,413-625-0192,413-625-0196
Monomoy Regional School District,07120000,Public School District,Title I District,Superintendent,Scott Carpenter,425 Crowell Rd,,Chatham,MA,02633,508-945-5130,508-945-5133
Monroe (non-op),01900000,Public School District,Non-Title I District,Superintendent,John Franzoni,98 Church Street,,North Adams,MA,01247,413-664-9292,413-664-9942
Monson,01910000,Public School District,Title I District,Superintendent,Cheryl Clarke,P O Box 159,,Monson,MA,01057,413-267-4150,413-267-4163
Montachusett Regional Vocational Technical,08320000,Public School District,Title I District,Superintendent,Sheila Harrity,1050 Westminster Street,,Fitchburg,MA,01420,978-345-9200,978-345-9165
Montague (non-op),01920000,Public School District,Non-Title I District,Superintendent,Michael Sullivan,35 Crocker Avenue,,Turners Falls,MA,01376,413-863-9324,413-863-4560
Monterey (non-op),01930000,Public School District,Non-Title I District,Superintendent,Beth Regulbuto,PO Box 339,,Sheffield,MA,01257,413-229-8778,413-229-2913
Montgomery (non-op),01940000,Public School District,Non-Title I District,Superintendent,David Hopson,12 Littleville Road,,Huntington,MA,01050,413-685-1011,413-667-8739
Mount Greylock,07150000,Public School District,Title I District,Superintendent,Robert Putnam,1781 Cold Spring Rd,,Williamstown,MA,01267,413-458-9582,413-458-2856
Mount Washington (non-op),01950000,Public School District,Non-Title I District,Superintendent,Leslieann Furcht,118 East Street,,Mt Washington,MA,01258,413-528-2839,--
Mystic Valley Regional Charter (District),04700000,Charter District,Non-Title I District,Charter School Leader,Alex Dan,4 Laurel Street,,Malden,MA,02148,781-388-0222,781-321-5688
Nahant,01960000,Public School District,Title I District,Superintendent,Anthony Pierantozzi,290 Castle Road,,Nahant,MA,01908,781-581-1600,781-581-0440
Nantucket,01970000,Public School District,Title I District,Superintendent,Elizabeth Hallett,10 Surfside Road,,Nantucket,MA,02554,508-228-7285,508-325-5318
Narragansett,07200000,Public School District,Title I District,Superintendent,Christopher Casavant,462 Baldwinville Rd,,Baldwinville,MA,01436,978-939-5661,978-939-5661
Nashoba,07250000,Public School District,Title I District,Superintendent,Brooke Clenchy,50 Mechanic Street,,Bolton,MA,01740,978-779-0539,978-779-5537
Nashoba Valley Regional Vocational Technical,08520000,Public School District,Title I District,Superintendent,Denise Pigeon,100 Littleton Road,,Westford,MA,01886,978-692-4711,978-392-0570
Natick,01980000,Public School District,Title I District,Superintendent,Anna Nolin,13 East Central Street,,Natick,MA,01760,508-647-6500,508-647-6506
Nauset,06600000,Public School District,Title I District,Superintendent,Thomas Conrad,78 Eldredge Pkwy,,Orleans,MA,02653,508-255-8800,508-240-2351
Needham,01990000,Public School District,Title I District,Superintendent,Daniel Gutekanst,1330 Highland Avenue,,Needham,MA,02492,781-455-0400,781-455-0417
Neighborhood House Charter (District),04440000,Charter District,Title I District,Charter School Leader,Kate Scott,21 Queen Street,,Dorchester,MA,02122,617-825-0703,617-825-1829
New Ashford (non-op),02000000,Public School District,Non-Title I District,Superintendent,Rebecca Phillips,3080 HANCOCK ROAD,,HANCOCK,MA,01237,413-698-4001,413-698-4003
New Bedford,02010000,Public School District,Title I District,Superintendent,Thomas Anderson,455 County Street,C/O Paul Rodrigues Administration Bldg.,New Bedford,MA,02740,508-997-4511,508-997-0298
New Braintree (non-op),02020000,Public School District,Non-Title I District,Superintendent,Sheila Muir,15 Memorial Drive,,New Braintree,MA,01531,978-355-4668,--
New Heights Charter School of Brockton (District),35130000,Charter District,Title I District,Charter School Leader,Omari Walker,1690 Main Street,,Brockton,MA,02301,508-857-4633,508-510-6434
New Marlborough (non-op),02050000,Public School District,Non-Title I District,Superintendent,Beth Regulbuto,PO Box 339,,Sheffield,MA,01257,413-229-8778,413-229-2913
New Salem (non-op),02060000,Public School District,Non-Title I District,Superintendent,Jennifer Culkeen,18 Pleasant Street,,Erving,MA,01344,413-423-3337,413-423-3236
New Salem-Wendell,07280000,Public School District,Title I District,Superintendent,Jennifer Culkeen,18 Pleasant Street,,Erving,MA,01344,413-423-3337,413-423-3236
Newbury (non-op),02030000,Public School District,Non-Title I District,Superintendent,Brian Forget,112 Elm Street,,Byfield,MA,01922,978-465-2397,978-465-8599
Newburyport,02040000,Public School District,Title I District,Superintendent,Sean Gallagher,70 Low Street,,Newburyport,MA,01950,978-465-4457,978-462-3495
Newton,02070000,Public School District,Title I District,Superintendent,David Fleishman,100 Walnut Street,,Newtonville,MA,02460,617-559-6100,617-559-6101
Norfolk,02080000,Public School District,Title I District,Superintendent,Ingrid Allardi,70 Boardman Street,,Norfolk,MA,02056,508-528-1225,508-528-3739
Norfolk County Agricultural,09150000,Public School District,Title I District,Superintendent,Tammy Quinn,400 Main Street,,Walpole,MA,02081,508-668-0268,508-668-0612
North Adams,02090000,Public School District,Title I District,Superintendent,Barbara Malkas,10 Main Street,Second Floor,North Adams,MA,01247,413-776-1458,413-776-1685
North Andover,02110000,Public School District,Title I District,Superintendent,Gregg Gilligan,566 Main Street,,North Andover,MA,01845,978-794-1503,978-794-0231
North Attleborough,02120000,Public School District,Title I District,Superintendent,Scott Holcomb,6 Morse Street,,North Attleborough,MA,02760,508-643-2100,508-643-2110
North Brookfield,02150000,Public School District,Title I District,Superintendent,Richard Lind,10 New School Drive,,North Brookfield,MA,01535,508-867-9821,508-867-8148
North Middlesex,07350000,Public School District,Title I District,Superintendent,Brad Morgan,66 Brookline Street,,Towsend,MA,01469,978-597-8713,978-597-6534
North Reading,02170000,Public School District,Title I District,Superintendent,Patrick Daly,189 Park Street,,North Reading,MA,01864,978-664-7810,978-664-0252
Northampton,02100000,Public School District,Title I District,Superintendent,John Provost,212 Main Street,,Northampton,MA,01060,413-587-1315,413-587-1318
Northampton-Smith Vocational Agricultural,04060000,Public School District,Title I District,Superintendent,Andrew Linkenhoker,80 Locust Street,,Northampton,MA,01060,413-587-1414,413-587-1405
Northboro-Southboro,07300000,Public School District,Title I District,Superintendent,Gregory Martineau,53 Parkerville Road,,Southborough,MA,01772,508-486-5115,508-486-5123
Northborough,02130000,Public School District,Title I District,Superintendent,Gregory Martineau,53 Parkerville Road,,Southborough,MA,01772,508-486-5115,508-486-5123
Northbridge,02140000,Public School District,Title I District,Superintendent,Amy McKinstry,87 Linwood Avenue,,Whitinsville,MA,01588,508-234-8156,508-234-8469
Northeast Metropolitan Regional Vocational Technical,08530000,Public School District,Title I District,Superintendent,David DiBarri,100 Hemlock Rd,,Wakefield,MA,01880,781-246-0810,781-246-4919
Northern Berkshire Regional Vocational Technical,08510000,Public School District,Title I District,Superintendent,James Brosnan,70 Hodges Cross Rd,,North Adams,MA,01247,413-663-5383,413-664-9424
Northfield (non-op),02160000,Public School District,Non-Title I District,Superintendent,Jonathan Scagel,97 F Sumner Turner Rd,,Northfield,MA,01360,413-498-2911,413-498-0045
Norton,02180000,Public School District,Title I District,Superintendent,Joseph Baeta,64 West Main Street,,Norton,MA,02766,508-285-0100,508-285-0199
Norwell,02190000,Public School District,Title I District,Superintendent,Matthew Keegan,322 Main Street,,Norwell,MA,02061,781-659-8800,781-659-8805
Norwood,02200000,Public School District,Title I District,Superintendent,David Thomson,275 Prospect Street,PO BOX 67,Norwood,MA,02062,781-762-6804,781-762-0229
Oak Bluffs,02210000,Public School District,Title I District,Superintendent,Matthew D'Andrea,4 Pine Street,,Vineyard Haven,MA,02568,508-693-2007,508-693-3190
Oakham (non-op),02220000,Public School District,Non-Title I District,Superintendent,Sheila Muir,1 Deacon Allen Drive,PO Box 99,Oakham,MA,01068,978-355-4668,--
Old Colony Regional Vocational Technical,08550000,Public School District,Title I District,Superintendent,Aaron Polansky,476 North Avenue,,Rochester,MA,02770,508-763-8011,508-763-9821
Old Rochester,07400000,Public School District,Title I District,Superintendent,Michael Nelson,135 Marion Rd,,Mattapoisett,MA,02739,508-758-2772,508-758-2802
Old Sturbridge Academy Charter Public School (District),35150000,Charter District,Title I District,Charter School Leader,Lisa DeTora,2 Old Sturbridge Village Road,,Sturbridge,MA,01566,774-922-1840,--
Orange,02230000,Public School District,Title I District,Superintendent,Elizabeth Zielinski,507 S. Main Street,P.O. Box 680,Orange,MA,01364,978-544-2920,978-544-8383
Orleans,02240000,Public School District,Title I District,Superintendent,Thomas Conrad,78 Eldredge Pkwy,,Orleans,MA,02653,508-255-8800,508-240-2351
Otis (non-op),02250000,Public School District,Non-Title I District,Superintendent,Thomas Nadolny,"555 N Main, POB 679",,Otis,MA,01253,413-269-4466,413-269-7659
Oxford,02260000,Public School District,Title I District,Superintendent,Kristine Nash,4 Maple Road,,Oxford,MA,01540,508-987-6050,508-987-6054
Palmer,02270000,Public School District,Title I District,Superintendent,Patricia Gardner,4107 Main Street,,Palmer,MA,01069,413-283-2650,413-283-2655
Pathfinder Regional Vocational Technical,08600000,Public School District,Title I District,Superintendent,Gerald Paist,240 Sykes Street,,Palmer,MA,01069,413-283-9701,413-284-0032
Paulo Freire Social Justice Charter School (District),35010000,Charter District,Title I District,Charter School Leader,Gilbert Traverso,134 Springfield St,,Chicopee,MA,01013,413-536-3201,413-536-3206
Paxton (non-op),02280000,Public School District,Non-Title I District,Superintendent,Darryll McCall,1745 Main Street,,Jefferson,MA,01522,508-829-1670,508-829-1680
Peabody,02290000,Public School District,Title I District,Superintendent,Joshua Vadala,27 Lowell Street,,Peabody,MA,01960,978-536-6500,978-536-6590
Pelham,02300000,Public School District,Non-Title I District,Superintendent,Michael Morris,170 Chestnut Street,Business Office,Amherst,MA,01002,413-362-1810,413-549-6108
Pembroke,02310000,Public School District,Title I District,Superintendent,Erin Obey,72 Pilgrim Road,Office of the Superintendent,Pembroke,MA,02359,781-829-0832,781-829-6957
Pentucket,07450000,Public School District,Title I District,Superintendent,Justin Bartholomew,22 Main Street,,West Newbury,MA,01985,978-363-2280,978-363-1165
Pepperell (non-op),02320000,Public School District,Non-Title I District,Superintendent,Brad Morgan,23 Main Street,,Townsend,MA,01469,978-597-8713,978-597-6534
Peru (non-op),02330000,Public School District,Non-Title I District,Superintendent,Laurie Casna,PO Box 299,,Dalton,MA,01227,413-684-0320,413-684-4088
Petersham,02340000,Public School District,Non-Title I District,Superintendent,Elizabeth Zielinski,P O Box 148,,Petersham,MA,01366,978-724-3363,978-724-6687
Phillipston (non-op),02350000,Public School District,Non-Title I District,Superintendent,Christopher Casavant,462 Baldwinville Road,,Baldwinville,MA,01436,978-939-5661,978-939-5179
Phoenix Academy Public Charter High School Lawrence (District),35180000,Charter District,Title I District,Charter School Leader,Beth Anderson,15 Union Street,,Lawrence,MA,01840,617-913-6580,--
Phoenix Academy Public Charter High School Springfield (District),35080000,Charter District,Title I District,Charter School Leader,Beth Anderson,65 Lincoln Street,,Springfield,MA,01105,413-273-1236,413-294-2500
Phoenix Charter Academy (District),04930000,Charter District,Title I District,Charter School Leader,Beth Anderson,175 Hawthorne Street,,Chelsea,MA,02150,617-889-3100,617-889-3144
Pioneer Charter School of Science (District),04940000,Charter District,Title I District,Charter School Leader,Barish Icin,51-59 Summer Street,,Everett,MA,02149,617-389-7277,617-389-7278
Pioneer Charter School of Science II (PCSS-II) (District),35060000,Charter District,Title I District,Charter School Leader,Barish Icin,97 Main Street,,Saugus,MA,01906,781-666-3945,781-666-3910
Pioneer Valley,07500000,Public School District,Title I District,Superintendent,Jonathan Scagel,97 F Sumner Turner Road,,Northfield,MA,01360,413-512-5608,413-512-5608
Pioneer Valley Chinese Immersion Charter (District),04970000,Charter District,Title I District,Charter School Leader,Kathleen Wang,317 Russell Street,,Hadley,MA,01035,413-582-7040,413-582-7068
Pioneer Valley Performing Arts Charter Public (District),04790000,Charter District,Title I District,Charter School Leader,Marc Kenen,15 Mulligan Drive,,South Hadley,MA,01075,413-552-1580,413-552-1594
Pittsfield,02360000,Public School District,Title I District,Superintendent,Jason Mccandless,269 First Street,,Pittsfield,MA,01201,413-499-9512,413-448-2643
Plainfield (non-op),02370000,Public School District,Non-Title I District,Superintendent,Michael Buoniconti,24 Ashfield Rd,,Shelburne Falls,MA,01370,413-625-0192,413-625-0196
Plainville,02380000,Public School District,Title I District,Superintendent,David Raiche,68 Messenger Street,,Plainville,MA,02762,508-699-1300,508-699-1302
Plymouth,02390000,Public School District,Title I District,Superintendent,Gary Maestas,11 Lincoln Street,,Plymouth,MA,02360,508-830-4300,508-746-1873
Plympton,02400000,Public School District,Title I District,Superintendent,Jill Proulx,250 Pembroke Street,,Kingston,MA,02364,781-585-4313,781-585-2994
Princeton (non-op),02410000,Public School District,Non-Title I District,Superintendent,Darryll McCall,1745 Main Street,,Jefferson,MA,01522,508-829-1670,508-829-1680
Prospect Hill Academy Charter (District),04870000,Charter District,Title I District,Charter School Leader,Angela Allen,50 Essex Street,,Cambridge,MA,02139,617-284-7800,617-284-7980
Provincetown,02420000,Public School District,Title I District,Superintendent,Suzanne Scallion,Provincetown Schools,,Provincetown,MA,02657,508-487-5205,508-487-5098
Quabbin,07530000,Public School District,Title I District,Superintendent,Sheila Muir,872 South Street,,Barre,MA,01005,978-355-4668,978-355-6756
Quaboag Regional,07780000,Public School District,Title I District,Superintendent,Brett Kustigian,284 Old West Brookfield Road,PO Box 1538,Warren,MA,01083,413-436-9256,413-436-9738
Quincy,02430000,Public School District,Title I District,Superintendent,Richard Decristofaro,34 Coddington Street,,Quincy,MA,02169,617-984-8700,617-984-8965
Ralph C Mahar,07550000,Public School District,Title I District,Superintendent,Elizabeth Zielinski,507 South Main Street,,Orange,MA,01364,978-544-2920,978-544-8383
Randolph,02440000,Public School District,Title I District,Superintendent,Thea Stovell,40 Highland Avenue,,Randolph,MA,02368,781-961-6205,781-961-6295
Raynham (non-op),02450000,Public School District,Non-Title I District,Superintendent,Derek Swenson,166 Mt. Prospect Street,,Bridgewater,MA,02324,508-279-2140,508-697-7012
Reading,02460000,Public School District,Title I District,Superintendent,John Doherty,82 Oakland Road,,Reading,MA,01867,781-944-5800,781-942-9149
Rehoboth (non-op),02470000,Public School District,Non-Title I District,Superintendent,Anthony Azar,2700 Regional Road,,North Dighton,MA,02764,508-252-5000,508-252-5024
Revere,02480000,Public School District,Title I District,Superintendent,Dianne Kelly,101 School Street,,Revere,MA,02151,781-286-8226,781-286-8221
Richmond,02490000,Public School District,Non-Title I District,Superintendent,Peter Dillon,1831 State Road,,Richmond,MA,01254,413-698-2207,413-698-4003
Rising Tide Charter Public (District),04830000,Charter District,Title I District,Charter School Leader,Michael O'Keefe,59 Armstrong Road,,Plymouth,MA,02360,508-747-2620,508-747-1826
River Valley Charter (District),04820000,Charter District,Title I District,Charter School Leader,Jonnie Lyn Evans,2 Perry Way,,Newburyport,MA,01950,978-465-0065,978-465-0119
Rochester,02500000,Public School District,Title I District,Superintendent,Michael Nelson,135 Marion Rd,,Mattapoisett,MA,02739,508-758-2772,508-758-2802
Rockland,02510000,Public School District,Title I District,Superintendent,Alan Cron,34 MacKinlay Way,,Rockland,MA,02370,781-878-3893,781-982-1483
Rockport,02520000,Public School District,Title I District,Superintendent,Robert Liebow,24 Jerdens Lane,,Rockport,MA,01966,978-546-1200,978-546-1205
Rowe,02530000,Public School District,Title I District,Superintendent,John Franzoni,86 Pond Road,,Rowe,MA,01367,413-664-9292,413-664-9942
Rowley (non-op),02540000,Public School District,Non-Title I District,Superintendent,Brian Forget,112 Elm Street,,Byfield,MA,01922,978-465-2397,978-465-8599
Roxbury Preparatory Charter (District),04840000,Charter District,Title I District,Charter School Leader,John Verrilli,120 Fisher Avenue,,Roxbury,MA,02120,617-566-2361,617-566-2373
Royalston (non-op),02550000,Public School District,Non-Title I District,Superintendent,Darcy Fernandes,250 South Main Street,,Athol,MA,01331,978-249-2400,978-249-2402
Russell (non-op),02560000,Public School District,Non-Title I District,Superintendent,David Hopson,12 Littleville Road,,Huntington,MA,01050,413-685-1011,413-667-8739
Rutland (non-op),02570000,Public School District,Non-Title I District,Superintendent,Darryll McCall,1745 Main Street,,Jefferson,MA,01522,508-829-1670,508-829-1680
Sabis International Charter (District),04410000,Charter District,Title I District,Charter School Leader,Maretta Thomsen,160 Joan Street,,Springfield,MA,01129,413-783-2600,413-783-2555
Salem,02580000,Public School District,Title I District,Superintendent,Stephen Zrike,29 Highland Avenue,,Salem,MA,01970,978-740-1212,978-740-3083
Salem Academy Charter (District),04850000,Charter District,Title I District,Charter School Leader,Kathy Egmont,45 Congress Street,c/o Shetland Pk,Salem,MA,01970,978-744-2105,978-744-7246
Salisbury (non-op),02590000,Public School District,Non-Title I District,Superintendent,Brian Forget,112 Elm Street,,Byfield,MA,01922,978-465-2397,978-465-8599
Sandisfield (non-op),02600000,Public School District,Non-Title I District,Superintendent,Thomas Nadolny,"555 N Main, POB 679",,Otis,MA,01253,413-269-4466,413-269-7659
Sandwich,02610000,Public School District,Title I District,Superintendent,Pamela Gould,33 Water Street,,Sandwich,MA,02563,508-888-1054,508-888-9505
Saugus,02620000,Public School District,Title I District,Superintendent,David DeRuosi,23 Main Street,,Saugus,MA,01906,781-231-5000,781-233-9424
Savoy,02630000,Public School District,Title I District,Superintendent,John Franzoni,26 Chapel Road,,Savoy,MA,01256,413-743-1992,413-743-1114
Scituate,02640000,Public School District,Title I District,Superintendent,William Burkhead,606 C J Cushing Hwy,,Scituate,MA,02066,781-545-8759,781-545-6291
Seekonk,02650000,Public School District,Title I District,Superintendent,Richard Drolet,25 Water Lane,,Seekonk,MA,02771,508-399-5106,508-399-5128
Seven Hills Charter Public (District),04860000,Charter District,Title I District,Charter School Leader,Leo Flanagan,51 Gage Street,,Worcester,MA,01605,774-420-7650,774-420-7295
Sharon,02660000,Public School District,Title I District,Superintendent,Victoria Greer,75 Mountain Street,,Sharon,MA,02067,781-784-1570,781-784-1573
Shawsheen Valley Regional Vocational Technical,08710000,Public School District,Title I District,Superintendent,Bradford Jackson,100 Cook Street,,Billerica,MA,01821,978-667-2111,978-663-6272
Sheffield (non-op),02670000,Public School District,Non-Title I District,Superintendent,Beth Regulbuto,491 Berkshire School Road,P. O. Box 339,Sheffield,MA,01257,413-229-8778,413-229-2913
Shelburne (non-op),02680000,Public School District,Non-Title I District,Superintendent,Michael Buoniconti,24 Ashfield Rd,,Shelburne Falls,MA,01370,413-625-0192,413-625-0196
Sherborn,02690000,Public School District,Title I District,Superintendent,Andrew Keough,157 Farm Street,,Dover,MA,02030,508-785-0036,508-785-2239
Shirley (non-op),02700000,Public School District,Non-Title I District,Superintendent,Mary Malone,34 Lancaster Rd,,Shirley,MA,01464,978-425-2630,978-425-0766
Shrewsbury,02710000,Public School District,Title I District,Superintendent,Joseph Sawyer,100 Maple Avenue,,Shrewsbury,MA,01545,508-841-8400,508-841-8490
Shutesbury,02720000,Public School District,Title I District,Superintendent,Jennifer Culkeen,18 Pleasant Street,,Erving,MA,01344,413-423-3337,413-423-3236
Silver Lake,07600000,Public School District,Title I District,Superintendent,Jill Proulx,250 Pembroke Street,,Kingston,MA,02364,781-585-4313,781-585-2994
Sizer School: A North Central Charter Essential (District),04740000,Charter District,Title I District,Charter School Leader,Michelle Paranto,500 Rindge Road,,Fitchburg,MA,01420,978-345-2701,978-345-9127
Somerset,02730000,Public School District,Title I District,Superintendent,Jeffrey Schoonover,580 Whetstone Hill Road,,Somerset,MA,02726,508-324-3100,508-324-3104
Somerset Berkley Regional School District,07630000,Public School District,Title I District,Superintendent,Jeffrey Schoonover,580 Whetstone Hill,,Somerset,MA,02726,508-324-3100,508-324-3104
Somerville,02740000,Public School District,Title I District,Superintendent,Mary Skipper,8 Bonair Street,,Somerville,MA,02145,617-625-6600,617-629-5661
South Hadley,02780000,Public School District,Title I District,Superintendent,Diana Bonneville,116 Main Street,,South Hadley,MA,01075,413-538-5060,413-532-6284
South Middlesex Regional Vocational Technical,08290000,Public School District,Title I District,Superintendent,Jonathan Evans,750 Winter Street,,Framingham,MA,01702,508-416-2250,508-416-2342
South Shore Charter Public (District),04880000,Charter District,Title I District,Charter School Leader,Alicia Savage,100 Longwater Circle,,Norwell,MA,02061,781-982-4202,781-982-4201
South Shore Regional Vocational Technical,08730000,Public School District,Title I District,Superintendent,Thomas Hickey,476 Webster Street,,Hanover,MA,02339,781-878-8822,781-982-0281
Southampton,02750000,Public School District,Title I District,Superintendent,Aaron Osborne,19 Stage Rd,,Westhampton,MA,01027,413-527-7200,413-529-9497
Southborough,02760000,Public School District,Non-Title I District,Superintendent,Gregory Martineau,53 Parkerville Road,,Southborough,MA,01772,508-486-5115,508-486-5123
Southbridge,02770000,Public School District,Title I District,Superintendent,Jeffrey Villar,132 Torry Rd,,Southbridge,MA,01550,508-764-5414,508-764-8325
Southeastern Regional Vocational Technical,08720000,Public School District,Title I District,Superintendent,Luis Lopes,250 Foundry Street,,South Easton,MA,02375,508-230-1200,508-230-1215
Southern Berkshire,07650000,Public School District,Title I District,Superintendent,Beth Regulbuto,PO BOX 339,,Sheffield,MA,01257,413-229-8778,413-229-2913
Southern Worcester County Regional Vocational Technical,08760000,Public School District,Title I District,Superintendent,Kyle Brenner,57 Old Muggett Hill Road,,Charlton,MA,01507,508-248-5971,508-248-4747
Southfield (non-op),03530000,Public School District,Non-Title I District,Superintendent,Kevin Donovan,223 Shea Memorial Drive,c/o South Shore Tri-Town Development Corporation,South Weymouth,MA,02190,781-682-2187,--
Southwick (non-op),02790000,Public School District,Non-Title I District,Superintendent,Jennifer Willard,86 Powder Mill Road,,Southwick,MA,01077,413-569-5391,413-569-1711
Southwick-Tolland-Granville Regional School District,07660000,Public School District,Title I District,Superintendent,Jennifer Willard,86 Powder Mill Road,,Southwick,MA,01077,413-569-5391,413-569-1711
Spencer (non-op),02800000,Public School District,Non-Title I District,Superintendent,Paul Haughey,306 Main Street,,Spencer,MA,01562,508-885-8500,508-885-8504
Spencer-E Brookfield,07670000,Public School District,Title I District,Superintendent,Paul Haughey,306 Main Street,,Spencer,MA,01562,508-885-8500,508-885-8504
Springfield,02810000,Public School District,Title I District,Superintendent,Daniel Warwick,1550 Main Street,,Springfield,MA,01103,413-787-6959,413-787-7171
Springfield Preparatory Charter School (District),35100000,Charter District,Title I District,Charter School Leader,Bill Spirer,594 Converse St.,,Longmeadow,MA,01106,413-231-2722,--
Sterling (non-op),02820000,Public School District,Non-Title I District,Superintendent,Darryll McCall,1745 Main Street,,Jefferson,MA,01522,508-829-1670,508-829-1680
Stockbridge (non-op),02830000,Public School District,Non-Title I District,Superintendent,Peter Dillon,207 Pleasant Street,PO Box 596,Housatonic,MA,01236,413-274-6400,--
Stoneham,02840000,Public School District,Title I District,Superintendent,John Macero,149 Franklin Street,,Stoneham,MA,02180,781-279-3802,781-279-3818
Stoughton,02850000,Public School District,Title I District,Superintendent,John Marcus,232 Pearl Street,,Stoughton,MA,02072,781-344-4000,781-344-6417
Stow (non-op),02860000,Public School District,Non-Title I District,Superintendent,Brooke Clenchy,50 Mechanic Street,,Bolton,MA,01740,978-779-0539,978-779-6812
Sturbridge,02870000,Public School District,Title I District,Superintendent,Erin Nosek,320 Brookfield Rd,,Fiskdale,MA,01518,508-347-3077,508-347-2697
Sturgis Charter Public (District),04890000,Charter District,Non-Title I District,Charter School Leader,Paul Marble,427 Main Street,,Hyannis,MA,02601,508-778-1782,508-771-6785
Sudbury,02880000,Public School District,Title I District,Superintendent,Brad Crozier,40 Fairbank Road,,Sudbury,MA,01776,978-443-1058,978-443-9001
Sunderland,02890000,Public School District,Title I District,Superintendent,Darius Modestow,"113 North Main Street, Office C101",,South Deerfield,MA,01373,413-665-1155,413-665-8506
Sutton,02900000,Public School District,Title I District,Superintendent,Theodore Friend,383 Boston Rd,,Sutton,MA,01590,508-581-1600,508-865-6463
Swampscott,02910000,Public School District,Title I District,Superintendent,Pamela Angelakis,207 Forest Avenue,,Swampscott,MA,01907,781-596-8800,781-599-2502
Swansea,02920000,Public School District,Title I District,Superintendent,John Robidoux,1 Gardners Neck Road,,Swansea,MA,02777,508-675-1195,508-672-1040
TEC Connections Academy Commonwealth Virtual School District,39020000,Public School District,Title I District,Superintendent,Patrick Lattuca,141 Mansion Drive,,East Walpole,MA,02032,774-315-5123,774-256-9343
Tantasqua,07700000,Public School District,Title I District,Superintendent,Erin Nosek,320A Brookfield Rd,,Fiskdale,MA,01518,508-347-3077,508-347-2697
Taunton,02930000,Public School District,Title I District,Superintendent,John Cabral,215 Harris Street,,Taunton,MA,02780,508-821-1201,508-821-1177
Templeton (non-op),02940000,Public School District,Non-Title I District,Superintendent,Christopher Casavant,462 Baldwinville Road,,Baldwinville,MA,01436,978-939-5661,978-939-5179
Tewksbury,02950000,Public School District,Title I District,Superintendent,Christopher Malone,139 Pleasant Street,,Tewksbury,MA,01876,978-640-7800,978-640-7804
Tisbury,02960000,Public School District,Title I District,Superintendent,Matthew D'Andrea,4 Pine Street,,Vineyard Haven,MA,02568,508-693-2007,508-693-3190
Tolland (non-op),02970000,Public School District,Non-Title I District,Superintendent,Jennifer Willard,86 Powder Mill Road,,Southwick,MA,01077,413-569-5391,413-569-1711
Topsfield,02980000,Public School District,Title I District,Superintendent,Scott Morrison,28 Middleton Road,,Boxford,MA,01921,978-887-0771,978-887-8042
Townsend (non-op),02990000,Public School District,Non-Title I District,Superintendent,Brad Morgan,23 Main Street,,Townsend,MA,01469,978-597-8713,978-597-6534
Tri-County Regional Vocational Technical,08780000,Public School District,Title I District,Superintendent,Stephen Dockray,147 Pond Street,,Franklin,MA,02038,508-528-5400,508-528-6074
Triton,07730000,Public School District,Title I District,Superintendent,Brian Forget,112 Elm Street,,Byfield,MA,01922,978-465-2397,978-465-8599
Truro,03000000,Public School District,Title I District,Superintendent,Michael Gradone,P O Box 2029,,Truro,MA,02666,508-487-1558,508-487-4289
Tyngsborough,03010000,Public School District,Title I District,Superintendent,Michael Flanagan,50 Norris Rd,,Tyngsborough,MA,01879,978-649-7488,978-649-7199
Tyringham (non-op),03020000,Public School District,Non-Title I District,Superintendent,Michael Richard,300A Greylock Street,,Lee,MA,01238,413-243-0276,413-243-4995
UP Academy Charter School of Boston (District),04800000,Charter District,Title I District,Charter School Leader,Rashidah Lawson,215 Dorchester Street,,Boston,MA,02127,617-635-8819,--
UP Academy Charter School of Dorchester (District),35050000,Charter District,Title I District,Charter School Leader,Erica Andrew,35 Westville Street,,Boston,MA,02124,617-635-8810,--
Up-Island Regional,07740000,Public School District,Title I District,Superintendent,Matthew D'Andrea,4 Pine Street,,Vineyard Haven,MA,02568,508-693-2007,508-693-3190
Upper Cape Cod Regional Vocational Technical,08790000,Public School District,Title I District,Superintendent,Roger Forget,220 Sandwich Rd,,Bourne,MA,02532,508-759-7711,508-759-7208
Upton (non-op),03030000,Public School District,Non-Title I District,Superintendent,Joseph Maruszczak,"150 North Ave, POB 5",,Mendon,MA,01756,508-634-1585,508-634-1582
Uxbridge,03040000,Public School District,Title I District,Superintendent,Frank Tiano,9 North Main Street,,Uxbridge,MA,01569,508-278-8648,508-278-8654
Veritas Preparatory Charter School (District),04980000,Charter District,Title I District,Charter School Leader,Rachel Romano,370 Pine Street,,Springfield,MA,01105,413-539-0055,413-306-5076
Wachusett,07750000,Public School District,Title I District,Superintendent,Darryll McCall,1745 Main Street,c/o Jefferson School,Jefferson,MA,01522,508-829-1670,508-829-1680
Wakefield,03050000,Public School District,Title I District,Superintendent,Douglas Lyons,60 Farm Street,,Wakefield,MA,01880,781-246-6400,781-245-9164
Wales,03060000,Public School District,Title I District,Superintendent,Erin Nosek,320 Brookfield Rd,,Fiskdale,MA,01518,508-347-3077,508-347-2697
Walpole,03070000,Public School District,Title I District,Superintendent,Bridget Gough,135 School Street,,Walpole,MA,02081,508-660-7200,508-668-1167
Waltham,03080000,Public School District,Title I District,Superintendent,Brian Reagan,617 Lexington Street,,Waltham,MA,02452,781-314-5400,781-314-5411
Ware,03090000,Public School District,Title I District,Superintendent,Marlene Di Leo,P O Box 240,,Ware,MA,01082,413-967-4271,413-967-9580
Wareham,03100000,Public School District,Title I District,Superintendent,Kimberly Shaver-Hood,48 Marion Road,,Wareham,MA,02571,508-291-3500,508-291-3578
Warren (non-op),03110000,Public School District,Non-Title I District,Superintendent,Brett Kustigian,284 Old West Brookfield Road,PO Box 1538,Warren,MA,01083,413-436-9256,413-436-9738
Warwick (non-op),03120000,Public School District,Non-Title I District,Superintendent,Jonathan Scagel,97 F Sumner Turner Rd,,Northfield,MA,01360,413-498-2911,413-498-0045
Washington (non-op),03130000,Public School District,Non-Title I District,Superintendent,Laurie Casna,PO Box 299,,Dalton,MA,01227,413-684-0320,413-684-4088
Watertown,03140000,Public School District,Title I District,Superintendent,Deanne Galdston,30 Common Street,,Watertown,MA,02472,617-926-7700,617-923-1234
Wayland,03150000,Public School District,Title I District,Superintendent,Arthur Unobskey,41 Cochituate Rd,,Wayland,MA,01778,508-358-3774,508-358-7708
Webster,03160000,Public School District,Title I District,Superintendent,Ruthann Petruno-Goguen,77 Poland Street,,Webster,MA,01570,508-943-0104,508-943-0104
Wellesley,03170000,Public School District,Title I District,Superintendent,David Lussier,40 Kingsbury Street,,Wellesley,MA,02481,781-446-6210,781-446-6208
Wellfleet,03180000,Public School District,Title I District,Superintendent,Thomas Conrad,78 Eldredge Pkwy,,Orleans,MA,02653,508-255-8800,508-240-2351
Wendell (non-op),03190000,Public School District,Non-Title I District,Superintendent,Jennifer Culkeen,18 Pleasant Street,,Erving,MA,01344,413-423-3337,413-423-3236
Wenham (non-op),03200000,Public School District,Non-Title I District,Superintendent,Julie Kukenberger,5 School Street,,Wenham,MA,01984,978-468-5310,978-468-7889
West Boylston,03220000,Public School District,Title I District,Superintendent,Richard Meagher,125 Crescent Street,,West Boylston,MA,01583,508-835-2917,508-835-8992
West Bridgewater,03230000,Public School District,Title I District,Superintendent,Mark Bodwell,2 Spring Street,,West Bridgewater,MA,02379,508-894-1230,508-894-1232
West Brookfield (non-op),03240000,Public School District,Non-Title I District,Superintendent,Brett Kustigian,48 High Street,PO Box 1538,Warren,MA,01083,413-436-9256,413-436-9738
West Newbury (non-op),03290000,Public School District,Non-Title I District,Superintendent,Justin Bartholomew,22 Main Street,,West Newbury,MA,01985,978-363-2280,978-363-1165
West Springfield,03320000,Public School District,Title I District,Superintendent,Timothy Connor,26 Central Street,,West Springfield,MA,01089,413-263-3300,413-495-1725
West Stockbridge (non-op),03330000,Public School District,Non-Title I District,Superintendent,Peter Dillon,207 Pleasant Street,PO Box 596,Housatonic,MA,01236,413-274-6400,--
West Tisbury (non-op),03340000,Public School District,Non-Title I District,Superintendent,Matthew D'Andrea,4 Pine Street,,Vineyard Haven,MA,02568,508-693-2007,508-693-3190
Westborough,03210000,Public School District,Title I District,Superintendent,Amber Bock,45 West Main Street,,Westborough,MA,01581,508-836-7700,508-836-7704
Westfield,03250000,Public School District,Title I District,Superintendent,Stefan Czaporowski,94 North Elm Street,Suite 101,Westfield,MA,01085,413-572-6403,413-572-6518
Westford,03260000,Public School District,Non-Title I District,Superintendent,Everett Olsen,23 Depot Street,,Westford,MA,01886,978-692-5560,978-392-4497
Westhampton,03270000,Public School District,Non-Title I District,Superintendent,Aaron Osborne,19 Stage Rd,,Westhampton,MA,01027,413-527-7200,413-529-9497
Westminster (non-op),03280000,Public School District,Non-Title I District,Superintendent,Sandra Rehler,11 Oakmont Drive,,Ashburnham,MA,01430,978-827-1434,978-827-5969
Weston,03300000,Public School District,Title I District,Superintendent,Midge Connolly,89 Wellesley Street,,Weston,MA,02493,781-786-5210,781-786-5209
Westport,03310000,Public School District,Title I District,Superintendent,Gary Reese,17 Main Rd,,Westport,MA,02790,508-636-1140,508-636-1146
Westwood,03350000,Public School District,Non-Title I District,Superintendent,Emily Parks,220 Nahatan Street,,Westwood,MA,02090,781-326-7500,781-326-8154
Weymouth,03360000,Public School District,Title I District,Superintendent,Jennifer Curtis-Whipple,111 Middle Street,,Weymouth,MA,02189,781-335-1460,781-335-8777
Whately,03370000,Public School District,Non-Title I District,Superintendent,Darius Modestow,"113 North Main Street, Office C101",,South Deerfield,MA,01373,413-665-1155,413-665-8506
Whitman (non-op),03380000,Public School District,Non-Title I District,Superintendent,Jeffrey Szymaniak,610 Franklin Street,,Whitman,MA,02382,781-618-7412,781-618-7412
Whitman-Hanson,07800000,Public School District,Title I District,Superintendent,Jeffrey Szymaniak,610 Franklin Street,,Whitman,MA,02382,781-618-7411,781-618-7498
Whittier Regional Vocational Technical,08850000,Public School District,Title I District,Superintendent,Maureen Lynch,115 Amesbury Line Rd,,Haverhill,MA,01830,978-373-4101,978-521-0260
Wilbraham (non-op),03390000,Public School District,Non-Title I District,Superintendent,Albert Ganem,621 Main Street,,Wilbraham,MA,01095,413-596-3884,413-599-1328
Williamsburg,03400000,Public School District,Title I District,Superintendent,Aaron Osborne,19 Stage Rd,,Westhampton,MA,01027,413-527-7200,413-529-9497
Williamstown (non-op),03410000,Public School District,Non-Title I District,Superintendent,Kimberley Grady,115 Church Street,,Williamstown,MA,01267,413-458-9582,413-458-2856
Wilmington,03420000,Public School District,Title I District,Superintendent,Glenn Brand,161 Church Street,,Wilmington,MA,01887,978-694-6000,978-694-6005
Winchendon,03430000,Public School District,Title I District,Superintendent,Joan Landers,175 Grove Street,,Winchendon,MA,01475,978-297-0031,978-297-5250
Winchester,03440000,Public School District,Title I District,Superintendent,Judith Evans,40 Samoset Road,,Winchester,MA,01890,781-721-7004,781-721-0016
Windsor (non-op),03450000,Public School District,Non-Title I District,Superintendent,Laurie Casna,PO Box 299,,Dalton,MA,01227,413-684-0320,413-684-4088
Winthrop,03460000,Public School District,Title I District,Superintendent,Lisa Howard,1 Metcalf Square,,Winthrop,MA,02152,617-846-5500,617-539-0891
Woburn,03470000,Public School District,Title I District,Superintendent,Matthew Crowley,55 Locust Street,,Woburn,MA,01801,781-937-8233,781-932-0668
Worcester,03480000,Public School District,Title I District,Superintendent,Maureen Binienda,20 Irving Street,,Worcester,MA,01609,508-799-3115,508-799-3119
Worthington,03490000,Public School District,Title I District,Superintendent,Gretchen Morse-Dobosz,147 Huntington Road,,Worthington,MA,01098,413-238-5856,--
Wrentham,03500000,Public School District,Title I District,Superintendent,Allan Cameron,120 Taunton Street,,Wrentham,MA,02093,508-384-5430,508-384-5444
Yarmouth (non-op),03510000,Public School District,Non-Title I District,Superintendent,Carol Woodbury,296 Station Avenue,,South Yarmouth,MA,02664,508-398-7605,508-398-7622